#cP2017  4 26  0  0  0.00000000      96 ORBIT IGS14 HLM  IGS
## 1946 259200.00000000   900.00000000 57869 0.0000000000000
+   32   G01G02G03G04G05G06G07G08G09G10G11G12G13G14G15G16G17
+        G18G19G20G21G22G23G24G25G26G27G28G29G30G31G32  0  0
+          0  0  0  0  0  0  0  0  0  0  0  0  0  0  0  0  0
+          0  0  0  0  0  0  0  0  0  0  0  0  0  0  0  0  0
+          0  0  0  0  0  0  0  0  0  0  0  0  0  0  0  0  0
++         2  2  2  0  2  2  2  2  3  2  2  2  2  2  2  2  2
++         2  3  2  2  2  2  2  2  2  2  2  2  2  2  3  0  0
++         0  0  0  0  0  0  0  0  0  0  0  0  0  0  0  0  0
++         0  0  0  0  0  0  0  0  0  0  0  0  0  0  0  0  0
++         0  0  0  0  0  0  0  0  0  0  0  0  0  0  0  0  0
%c G  cc GPS ccc cccc cccc cccc cccc ccccc ccccc ccccc ccccc
%c cc cc ccc ccc cccc cccc cccc cccc ccccc ccccc ccccc ccccc
%f  1.2500000  1.025000000  0.00000000000  0.000000000000000
%f  0.0000000  0.000000000  0.00000000000  0.000000000000000
%i    0    0    0    0      0      0      0      0         0
%i    0    0    0    0      0      0      0      0         0
/* RAPID ORBIT COMBINATION FROM WEIGHTED AVERAGE OF:        
/* cod emr esa gfz jpl ngs sio usn whu                      
/* REFERENCED TO IGS TIME (IGST) AND TO WEIGHTED MEAN POLE: 
/* PCV:IGS14_1930 OL/AL:FES2004  NONE     Y  ORB:CMB CLK:CMB
*  2017  4 26  8 15  0.00000000
PG01 -13590.778172  22536.534137  -2346.282756     53.818747  6  6  5  91       
PG02  18842.667612  -8914.372910 -15768.138442    431.919581  8  6  5 104       
PG03 -10412.618066  13507.877935 -20356.272012   -103.059979  6  5  5  96       
PG04 -24466.860319  -7661.823171  -7697.819267 999999.999999
PG05  25776.640642  -2874.991867   6123.084020    -48.885341  8  8  5  80       
PG06  13784.983305   6426.773363 -21750.586937    342.877079  8  5  4  93       
PG07  -3056.974964  21841.868905  14651.354426    358.235494  7  9  5  81       
PG08 -10525.136608  11911.695442  21318.014616    -57.627701  6  6  6  86       
PG09   7044.114185  24757.665095  -6546.280366    350.653998  8 10  8 100       
PG10 -20256.388883 -10888.226668  13412.560898    -68.214295  4  3  7  89       
PG11 -10576.150454  23139.175198   7153.890790   -683.904530  7  8  6  89       
PG12  15514.302175 -10463.251392 -18916.372932    384.764206  7  6  6 111       
PG13  14550.893432  -3616.027151  21802.780658    -79.494136  6  5  5  84       
PG14 -16776.745076 -13442.931855 -15435.756981    -68.400383  4  9  5 115       
PG15   8139.497981 -15453.309836  19749.635397   -348.688528  4  2  2  79       
PG16 -26128.737927   -201.030950   5731.910195     32.098682  2  8  5  76       
PG17  14584.627011  20671.259366  -7982.908992   -182.356164  5 10  8  96       
PG18 -11029.254946 -15069.107687  19541.546422    612.415493  8  9  4  84       
PG19  16353.706427  14163.797122 -15478.089636   -505.864839  9 13 11  80       
PG20  14746.971625 -13383.587353  17427.486897    469.800661  4  7  4  95       
PG21  -3710.064168 -19448.354230  18435.004729   -510.388499  7 10  3 101       
PG22 -19553.634613  10350.533295 -14494.715763     29.358916  2  6  5  97       
PG23  -2740.713307  20644.666182 -15994.158968   -210.598283  5  8  4  99       
PG24  14565.363418 -22041.794596    616.321909    -33.934336  6  4  7  92       
PG25   -208.619680 -14969.628181 -22093.062580   -376.655628  8  7  7 108       
PG26 -25755.542188  -4863.776812  -4585.332619   -510.365600  5  7  5  99       
PG27 -16345.864230  -1205.451342  20897.713991    247.163627  6  6  5 100       
PG28  16483.471637  13560.084866  16434.585479    607.935884  6  8  7  75       
PG29  -3487.917300 -24675.500301  -9240.009647    609.461387  6  9  6 100       
PG30   8040.941305  14170.635325  20946.920347    158.210591  7  5  4  84       
PG31 -15036.618382  -4448.225809 -21418.380404    204.872184  5 10  4 116       
PG32 -16255.608501 -19079.975131  -8840.502017   -396.267577  7  9  8 126       
*  2017  4 26  8 30  0.00000000
PG01 -13858.813337  22474.461904    535.035564     53.819150  6  6  5  96       
PG02  18034.355325  -7063.999952 -17528.608745    431.913113  7  6  5 109       
PG03 -12668.377944  13301.789405 -19176.510560   -103.058686  6  5  5 107       
PG04 -23465.904284  -7747.011748 -10329.800808 999999.999999
PG05  26319.768301  -2586.314674   3377.046380    -48.883567  8  8  5  72       
PG06  12457.047280   8540.947192 -21822.632546    342.881581  9  4  4 103       
PG07  -4090.798588  23000.033010  12391.739734    358.231832  7  8  5  92       
PG08 -11719.748831   9767.547935  21789.365995    -57.629000  5  6  5  96       
PG09   6394.245662  24086.053216  -9194.619976    350.661014  9 10  7 113       
PG10 -18601.978277 -11008.028607  15536.773986    -68.206707  5  3  7  76       
PG11 -10788.671223  22048.826313   9645.111781   -683.907028  8  8  6 104       
PG12  17533.207562 -10151.274581 -17214.433009    384.763310  7  5  7 113       
PG13  15416.785670  -1271.696527  21465.274104    -79.495412  6  5  6  95       
PG14 -17268.941859 -15059.829267 -13303.642775    -68.402042  4  9  5 113       
PG15   9479.005330 -13507.121713  20588.290451   -348.689348  4  2  2  87       
PG16 -26609.660777   -399.413283   2898.912662     32.099050  4  9  4  58       
PG17  14749.941180  21469.825167  -5231.841154   -182.355075  6 10  8  96       
PG18  -8841.372704 -15182.228744  20551.892331    612.417136  7  8  5  90       
PG19  16804.679836  15719.606533 -13275.333080   -505.863876  8 13 12  77       
PG20  16686.139965 -13263.516768  15698.884431    469.802401  5  7  3  93       
PG21  -2607.492457 -20991.907858  16773.693400   -510.387119  8 10  3  98       
PG22 -21133.959182  10072.671503 -12357.398462     29.347759  3  6  5  99       
PG23  -3863.961530  18987.926270 -17736.487154   -210.598878  5  8  4 104       
PG24  14713.871525 -21670.774017   3442.681032    -33.935115  6  3  7  79       
PG25   2277.045870 -14844.574616 -22041.711074   -376.661623  8  7  7 106       
PG26 -25068.899547  -5086.877583  -7323.247781   -510.362560  6  8  5 102       
PG27 -17371.696653  -3300.347739  19838.468860    247.169472  7  7  6 101       
PG28  14614.404972  13422.818852  18283.234063    607.938136  7  8  6  60       
PG29  -2839.050879 -23653.221352 -11783.302050    609.458102  7  9  6 100       
PG30   6583.597370  16024.501105  20090.963038    158.209962  7  5  4  88       
PG31 -13652.734244  -6507.814398 -21779.273357    204.869781  6 10  4 111       
PG32 -16444.883244 -19953.030839  -6167.477640   -396.277540  7  8  8 113       
*  2017  4 26  8 45  0.00000000
PG01 -13969.586398  22140.016669   3406.976760     53.819608  5  6  6 104       
PG02  17233.652605  -5010.364561 -18972.066888    431.906224  7  6  5 106       
PG03 -14779.780727  13210.640753 -17666.568601   -103.057373  6  6  4  89       
PG04 -22186.243635  -7885.244000 -12788.413896 999999.999999
PG05  26564.401301  -2316.461758    573.531524    -48.882040  9  8  4  90       
PG06  11249.179882  10711.046721 -21518.315285    342.886042  8  3  3  82       
PG07  -4930.330763  23978.713910   9916.075238    358.228342  7  8  5  99       
PG08 -13042.987278   7663.368645  21887.453666    -57.629760  4  6  5  95       
PG09   5559.400929  23200.702129 -11684.752922    350.668055  8  9  7 111       
PG10 -16730.925130 -11218.488572  17395.388339    -68.199131  4  3  7 109       
PG11 -11018.380237  20694.391714  11966.753971   -683.909219  8  7  6  97       
PG12  19359.288686  -9961.284137 -15217.120026    384.763186  6  5  7 108       
PG13  16381.684321    969.000581  20754.159453    -79.496629  6  5  6  93       
PG14 -17731.176084 -16417.415789 -10940.871861    -68.402871  4  8  4 108       
PG15  10948.207224 -11566.265394  21065.605130   -348.689872  4  1  3  80       
PG16 -26780.119151   -549.994712     17.164284     32.099646  6  9  4  75       
PG17  14810.528658  21976.299900  -2390.770835   -182.353669  7  9  8  97       
PG18  -6569.248848 -15405.824736  21226.962744    612.418665  7  6  4  97       
PG19  17225.968890  17014.994037 -10844.276430   -505.862553  8 13 12   6       
PG20  18418.086720 -13210.978785  13697.430879    469.803355  5  6  3 106       
PG21  -1668.406547 -22415.460927  14837.493350   -510.385390  8 10  4 105       
PG22 -22470.044469   9854.518275 -10005.282080     29.337008  4  7  4 100       
PG23  -5159.215503  17233.690598 -19163.369967   -210.599710  5  8  4 100       
PG24  14734.888533 -21024.680293   6208.827606    -33.934769  6  4  7  88       
PG25   4741.204611 -14856.161527 -21615.828831   -376.667655  8  7  8 108       
PG26 -24092.622942  -5353.965514  -9935.788618   -510.359631  7  8  5 114       
PG27 -18437.020006  -5215.258315  18438.417294    247.175310  7  7  7 102       
PG28  12556.203843  13380.818494  19831.769752    607.940933  7  8  6  59       
PG29  -2005.561791 -22423.362689 -14124.203506    609.455112  7  8  6 103       
PG30   5282.680951  17851.529907  18888.071431    158.209398  7  5  4 101       
PG31 -12367.906967  -8658.095924 -21763.538396    204.867617  7 10  4 115       
PG32 -16518.934215 -20551.623919  -3388.559961   -396.287522  7  7  9 130       
EOF
